{
  "type": "FeatureCollection",
  "features": [
    {
      "type": "Feature",
      "properties": {
        "norad_id": 44231,
        "name": "BEIDOU-2 G8 (C01)",
        "group": "gnss",
        "lat": 1.2822496621911956,
        "lon": 125.55426914314096,
        "alt_km": 35818.666503738976,
        "timestamp": "2025-12-04T17:48:40.409856+00:00",
        "meta_object_name": "BEIDOU-2 G8 (C01)",
        "meta_object_id": "2019-027A",
        "meta_epoch": "2025-12-04T07:33:59.075712",
        "meta_mean_motion": 1.00269905,
        "meta_eccentricity": 0.00083835,
        "meta_inclination": 1.639,
        "meta_ra_of_asc_node": 74.7036,
        "meta_arg_of_pericenter": 254.7204,
        "meta_mean_anomaly": 2.0308,
        "meta_ephemeris_type": 0,
        "meta_classification_type": "U",
        "meta_norad_cat_id": 44231,
        "meta_element_set_no": 999,
        "meta_rev_at_epoch": 2412,
        "meta_bstar": 0,
        "meta_mean_motion_dot": -2.32e-06,
        "meta_mean_motion_ddot": 0,
        "tle_line1": "1 44231U 19027A   25338.31526708 -.00000232  00000+0  00000+0 0  9992",
        "tle_line2": "2 44231   1.6390  74.7036 0008383 254.7204   2.0308  1.00269905 24122"
      },
      "geometry": {
        "type": "Point",
        "coordinates": [
          125.55426914314096,
          1.2822496621911956
        ]
      }
    },
    {
      "type": "Feature",
      "properties": {
        "norad_id": 44299,
        "name": "COSMOS 2534 (758)",
        "group": "gnss",
        "lat": 6.471933298064828,
        "lon": -157.71272452061595,
        "alt_km": 19127.059401685263,
        "timestamp": "2025-12-04T17:48:40.409871+00:00",
        "meta_object_name": "COSMOS 2534 (758)",
        "meta_object_id": "2019-030A",
        "meta_epoch": "2025-12-01T03:07:57.438624",
        "meta_mean_motion": 2.1310195,
        "meta_eccentricity": 0.00091167,
        "meta_inclination": 64.3652,
        "meta_ra_of_asc_node": 199.2842,
        "meta_arg_of_pericenter": 283.4428,
        "meta_mean_anomaly": 193.0266,
        "meta_ephemeris_type": 0,
        "meta_classification_type": "U",
        "meta_norad_cat_id": 44299,
        "meta_element_set_no": 999,
        "meta_rev_at_epoch": 5070,
        "meta_bstar": 0,
        "meta_mean_motion_dot": 9.9e-07,
        "meta_mean_motion_ddot": 0,
        "tle_line1": "1 44299U 19030A   25335.13052591  .00000099  00000+0  00000+0 0  9991",
        "tle_line2": "2 44299  64.3652 199.2842 0009116 283.4428 193.0266  2.13101950 50700"
      },
      "geometry": {
        "type": "Point",
        "coordinates": [
          -157.71272452061595,
          6.471933298064828
        ]
      }
    },
    {
      "type": "Feature",
      "properties": {
        "norad_id": 44337,
        "name": "BEIDOU-3 IGSO-2 (C39)",
        "group": "gnss",
        "lat": -45.09182329797095,
        "lon": 116.26612098548321,
        "alt_km": 35812.77385260893,
        "timestamp": "2025-12-04T17:48:40.409883+00:00",
        "meta_object_name": "BEIDOU-3 IGSO-2 (C39)",
        "meta_object_id": "2019-035A",
        "meta_epoch": "2025-12-01T05:17:49.661952",
        "meta_mean_motion": 1.00274502,
        "meta_eccentricity": 0.00376064,
        "meta_inclination": 55.2223,
        "meta_ra_of_asc_node": 160.6035,
        "meta_arg_of_pericenter": 202.2564,
        "meta_mean_anomaly": 266.4761,
        "meta_ephemeris_type": 0,
        "meta_classification_type": "U",
        "meta_norad_cat_id": 44337,
        "meta_element_set_no": 999,
        "meta_rev_at_epoch": 2368,
        "meta_bstar": 0,
        "meta_mean_motion_dot": -2.5e-07,
        "meta_mean_motion_ddot": 0,
        "tle_line1": "1 44337U 19035A   25335.22071368 -.00000025  00000+0  00000+0 0  9992",
        "tle_line2": "2 44337  55.2223 160.6035 0037606 202.2564 266.4761  1.00274502 23688"
      },
      "geometry": {
        "type": "Point",
        "coordinates": [
          116.26612098548321,
          -45.09182329797095
        ]
      }
    },
    {
      "type": "Feature",
      "properties": {
        "norad_id": 44506,
        "name": "GPS BIII-2  (PRN 18)",
        "group": "gnss",
        "lat": 20.888116128340187,
        "lon": -6.044807449289862,
        "alt_km": 20331.69187652679,
        "timestamp": "2025-12-04T17:48:40.409895+00:00",
        "meta_object_name": "GPS BIII-2  (PRN 18)",
        "meta_object_id": "2019-056A",
        "meta_epoch": "2025-12-02T10:49:28.764768",
        "meta_mean_motion": 2.00565569,
        "meta_eccentricity": 0.00578163,
        "meta_inclination": 55.7251,
        "meta_ra_of_asc_node": 338.9617,
        "meta_arg_of_pericenter": 198.402,
        "meta_mean_anomaly": 332.9603,
        "meta_ephemeris_type": 0,
        "meta_classification_type": "U",
        "meta_norad_cat_id": 44506,
        "meta_element_set_no": 999,
        "meta_rev_at_epoch": 4612,
        "meta_bstar": 0,
        "meta_mean_motion_dot": -6.1e-07,
        "meta_mean_motion_ddot": 0,
        "tle_line1": "1 44506U 19056A   25336.45102737 -.00000061  00000+0  00000+0 0  9994",
        "tle_line2": "2 44506  55.7251 338.9617 0057816 198.4020 332.9603  2.00565569 46121"
      },
      "geometry": {
        "type": "Point",
        "coordinates": [
          -6.044807449289862,
          20.888116128340187
        ]
      }
    },
    {
      "type": "Feature",
      "properties": {
        "norad_id": 44542,
        "name": "BEIDOU-3 M24 (C46)",
        "group": "gnss",
        "lat": -53.656207675368925,
        "lon": 112.43064190984263,
        "alt_km": 21541.475631936286,
        "timestamp": "2025-12-04T17:48:40.409906+00:00",
        "meta_object_name": "BEIDOU-3 M24 (C46)",
        "meta_object_id": "2019-061A",
        "meta_epoch": "2025-12-03T18:58:50.861280",
        "meta_mean_motion": 1.86229252,
        "meta_eccentricity": 0.00095721,
        "meta_inclination": 54.4001,
        "meta_ra_of_asc_node": 189.3183,
        "meta_arg_of_pericenter": 23.909,
        "meta_mean_anomaly": 336.2302,
        "meta_ephemeris_type": 0,
        "meta_classification_type": "U",
        "meta_norad_cat_id": 44542,
        "meta_element_set_no": 999,
        "meta_rev_at_epoch": 4215,
        "meta_bstar": 0,
        "meta_mean_motion_dot": 1.12e-06,
        "meta_mean_motion_ddot": 0,
        "tle_line1": "1 44542U 19061A   25337.79086645  .00000112  00000+0  00000+0 0  9993",
        "tle_line2": "2 44542  54.4001 189.3183 0009572  23.9090 336.2302  1.86229252 42152"
      },
      "geometry": {
        "type": "Point",
        "coordinates": [
          112.43064190984263,
          -53.656207675368925
        ]
      }
    },
    {
      "type": "Feature",
      "properties": {
        "norad_id": 44543,
        "name": "BEIDOU-3 M23 (C45)",
        "group": "gnss",
        "lat": -8.681647146043279,
        "lon": 15.545048318623138,
        "alt_km": 21546.469304457452,
        "timestamp": "2025-12-04T17:48:40.409916+00:00",
        "meta_object_name": "BEIDOU-3 M23 (C45)",
        "meta_object_id": "2019-061B",
        "meta_epoch": "2025-12-04T04:33:30.400416",
        "meta_mean_motion": 1.86227468,
        "meta_eccentricity": 0.0006118,
        "meta_inclination": 54.3989,
        "meta_ra_of_asc_node": 189.2733,
        "meta_arg_of_pericenter": 22.8981,
        "meta_mean_anomaly": 157.6124,
        "meta_ephemeris_type": 0,
        "meta_classification_type": "U",
        "meta_norad_cat_id": 44543,
        "meta_element_set_no": 999,
        "meta_rev_at_epoch": 4216,
        "meta_bstar": 0,
        "meta_mean_motion_dot": 1.08e-06,
        "meta_mean_motion_ddot": 0,
        "tle_line1": "1 44543U 19061B   25338.18993519  .00000108  00000+0  00000+0 0  9990",
        "tle_line2": "2 44543  54.3989 189.2733 0006118  22.8981 157.6124  1.86227468 42162"
      },
      "geometry": {
        "type": "Point",
        "coordinates": [
          15.545048318623138,
          -8.681647146043279
        ]
      }
    },
    {
      "type": "Feature",
      "properties": {
        "norad_id": 44624,
        "name": "EUTELSAT 5 WEST B (EGNOS/PRN 121)",
        "group": "gnss",
        "lat": 0.012373338139670717,
        "lon": -23.997683619000362,
        "alt_km": 35784.908197562094,
        "timestamp": "2025-12-04T17:48:40.409927+00:00",
        "meta_object_name": "EUTELSAT 5 WEST B (EGNOS/PRN 121)",
        "meta_object_id": "2019-067A",
        "meta_epoch": "2025-12-04T05:08:27.051936",
        "meta_mean_motion": 1.00268945,
        "meta_eccentricity": 0.00034846,
        "meta_inclination": 0.0701,
        "meta_ra_of_asc_node": 329.9131,
        "meta_arg_of_pericenter": 283.6966,
        "meta_mean_anomaly": 251.8026,
        "meta_ephemeris_type": 0,
        "meta_classification_type": "U",
        "meta_norad_cat_id": 44624,
        "meta_element_set_no": 999,
        "meta_rev_at_epoch": 2248,
        "meta_bstar": 0,
        "meta_mean_motion_dot": -2.7e-07,
        "meta_mean_motion_ddot": 0,
        "tle_line1": "1 44624U 19067A   25338.21420199 -.00000027  00000+0  00000+0 0  9990",
        "tle_line2": "2 44624   0.0701 329.9131 0003484 283.6966 251.8026  1.00268945 22482"
      },
      "geometry": {
        "type": "Point",
        "coordinates": [
          -23.997683619000362,
          0.012373338139670717
        ]
      }
    }
  ]
}